*******************************************************************************
Ephemeris / WWW_USER Tue Mar 27 22:33:09 2018 Pasadena, USA      / Horizons    
*******************************************************************************
Target body name: Earth (399)                     {source: DE431mx}
Center body name: Earth-Moon Barycenter (3)       {source: DE431mx}
Center-site name: BODY CENTER
*******************************************************************************
Start time      : A.D. 2000-Jan-01 00:00:00.0000 TDB
Stop  time      : A.D. 2001-Jan-01 00:00:00.0000 TDB
Step-size       : 7200 minutes
*******************************************************************************
Center geodetic : 0.00000000,0.00000000,0.0000000 {E-lon(deg),Lat(deg),Alt(km)}
Center cylindric: 0.00000000,0.00000000,0.0000000 {E-lon(deg),Dxy(km),Dz(km)}
Center radii    : (undefined)                                                  
Output units    : AU-D                                                         
Output type     : GEOMETRIC cartesian states
Output format   : 2 (position and velocity)
Reference frame : ICRF/J2000.0                                                 
Coordinate systm: Ecliptic and Mean Equinox of Reference Epoch                 
*******************************************************************************
JDTDB
   X     Y     Z
   VX    VY    VZ
*******************************************************************************
$$SOE
2451754.500000000 = A.D. 2000-Jul-29 00:00:00.0000 TDB 
   3.316106491548844E-06 -2.903556911490942E-05  8.406128517112787E-07
   7.564847962678031E-06  1.035464268598600E-06 -6.763608493112904E-07
2451759.500000000 = A.D. 2000-Aug-03 00:00:00.0000 TDB 
   2.957338347238628E-05 -4.750313660202700E-06 -2.299338297784717E-06
   1.595665727877485E-06  7.277462275542698E-06 -4.128419038590327E-07
2451764.500000000 = A.D. 2000-Aug-08 00:00:00.0000 TDB 
   1.769753718394745E-05  2.691947932799612E-05 -2.513146261727937E-06
  -5.557553580724103E-06  4.080024920624415E-06  3.106464623696036E-07
2451769.500000000 = A.D. 2000-Aug-13 00:00:00.0000 TDB 
  -1.451887074987008E-05  2.953304166901136E-05  8.524556627049998E-08
  -6.068945431913937E-06 -3.063900541722801E-06  6.235496388242037E-07
2451774.500000000 = A.D. 2000-Aug-18 00:00:00.0000 TDB 
  -3.184498571687842E-05  1.683580617164967E-06  2.581277640022539E-06
  -7.906429966258475E-08 -7.014857590452965E-06  2.695392195792781E-07
2451779.500000000 = A.D. 2000-Aug-23 00:00:00.0000 TDB 
  -1.379829207934016E-05 -2.698266023466016E-05  2.148676021606210E-06
   6.666176857581569E-06 -3.058936063079149E-06 -4.409247818506802E-07
2451784.500000000 = A.D. 2000-Aug-28 00:00:00.0000 TDB 
   2.086857715319082E-05 -2.069467671059503E-05 -9.611436850059832E-07
   5.377098506059148E-06  5.376979935471885E-06 -6.431969110667505E-07
2451789.500000000 = A.D. 2000-Sep-02 00:00:00.0000 TDB 
   2.758129973052727E-05  1.387062195959872E-05 -2.776170125218235E-06
  -2.818374253950079E-06  6.657961410727772E-06 -7.206398926798899E-09
2451794.500000000 = A.D. 2000-Sep-07 00:00:00.0000 TDB 
   5.113838335294839E-07  3.273765885496286E-05 -1.213961562713676E-06
  -6.774279111423637E-06  2.742042586844187E-07  5.505121073631581E-07
2451799.500000000 = A.D. 2000-Sep-12 00:00:00.0000 TDB 
  -2.765417648726136E-05  1.683060363833110E-05  1.672570412214684E-06
  -3.375492558076355E-06 -6.041691103919992E-06  4.896797275134717E-07
2451804.500000000 = A.D. 2000-Sep-17 00:00:00.0000 TDB 
  -2.605237982863111E-05 -1.673423138430307E-05  2.702276002266650E-06
   4.109372477591727E-06 -5.935654107886485E-06 -1.352386965749013E-07
2451809.500000000 = A.D. 2000-Sep-22 00:00:00.0000 TDB 
   6.022187483956282E-06 -2.938153740132692E-05  4.924697397210098E-07
   7.234504925775304E-06  1.623403770677993E-06 -6.498697762558901E-07
2451814.500000000 = A.D. 2000-Sep-27 00:00:00.0000 TDB 
   2.981781938837841E-05 -3.518107626623715E-06 -2.321766691244013E-06
   1.083382198657579E-06  7.380538523215428E-06 -3.311050251056927E-07
2451819.500000000 = A.D. 2000-Oct-02 00:00:00.0000 TDB 
   1.564061596803401E-05  2.775552898579198E-05 -2.166417375042995E-06
  -5.893317872618995E-06  3.780329726204210E-06  3.655435200568345E-07
2451824.500000000 = A.D. 2000-Oct-07 00:00:00.0000 TDB 
  -1.674345304345793E-05  2.820211192080397E-05  4.946391242601388E-07
  -5.778724048476691E-06 -3.525332197280126E-06  5.886499519949111E-07
2451829.500000000 = A.D. 2000-Oct-12 00:00:00.0000 TDB 
  -3.140353989511404E-05 -1.219982165170555E-06  2.617225798012530E-06
   6.339184638075388E-07 -7.106803543991489E-06  1.644116171368749E-07
2451834.500000000 = A.D. 2000-Oct-17 00:00:00.0000 TDB 
  -1.018289184464630E-05 -2.842964545158485E-05  1.676903306191671E-06
   6.992468668503854E-06 -2.392847524913466E-06 -5.100001049527792E-07
2451839.500000000 = A.D. 2000-Oct-22 00:00:00.0000 TDB 
   2.329993393842654E-05 -1.907656858658003E-05 -1.383299639803764E-06
   4.724649167587467E-06  5.683472283023633E-06 -5.592158279993932E-07
2451844.500000000 = A.D. 2000-Oct-27 00:00:00.0000 TDB 
   2.691178019958776E-05  1.539211969953039E-05 -2.672033462149672E-06
  -3.317289424532164E-06  6.431627445464514E-06  9.612859037609469E-08
2451849.500000000 = A.D. 2000-Nov-01 00:00:00.0000 TDB 
  -1.693463324421141E-06  3.256573545907247E-05 -7.456661811108196E-07
  -6.828580274042679E-06 -1.407875148674759E-07  5.808370525965026E-07
2451854.500000000 = A.D. 2000-Nov-06 00:00:00.0000 TDB 
  -2.867776848274554E-05  1.498993090690656E-05  2.022058552495724E-06
  -2.900539305454547E-06 -6.224652522028778E-06  4.159388348432048E-07
2451859.500000000 = A.D. 2000-Nov-11 00:00:00.0000 TDB 
  -2.414656348302843E-05 -1.842890697193117E-05  2.535372146648951E-06
   4.741807109914127E-06 -5.651116209677543E-06 -2.542137712639458E-07
2451864.500000000 = A.D. 2000-Nov-16 00:00:00.0000 TDB 
   9.711061009920529E-06 -2.814910927047441E-05 -1.059306314087910E-07
   7.099014501576287E-06  2.360378110571006E-06 -6.714944334137960E-07
2451869.500000000 = A.D. 2000-Nov-21 00:00:00.0000 TDB 
   3.065447091995853E-05 -4.875138192212048E-07 -2.627277937081001E-06
   3.521391083783555E-07  7.257779691044684E-06 -2.179462340060667E-07
2451874.500000000 = A.D. 2000-Nov-26 00:00:00.0000 TDB 
   1.384236062118723E-05  2.889726856723666E-05 -1.923316732885410E-06
  -6.186798621763055E-06  3.283767729627767E-06  4.542905308342632E-07
2451879.500000000 = A.D. 2000-Dec-01 00:00:00.0000 TDB 
  -1.871905407073917E-05  2.705901431221227E-05  9.643730660861610E-07
  -5.550017251650821E-06 -3.861803305294497E-06  5.837299586716198E-07
2451884.500000000 = A.D. 2000-Dec-06 00:00:00.0000 TDB 
  -3.146356530959316E-05 -2.812155505949179E-06  2.835945596435237E-06
   1.082228848368663E-06 -6.956756897784432E-06  7.984855693679162E-08
2451889.500000000 = A.D. 2000-Dec-11 00:00:00.0000 TDB 
  -8.109235650994781E-06 -2.837500539027389E-05  1.417078732569783E-06
   7.349759481550629E-06 -1.858296350968000E-06 -6.029484172234198E-07
2451894.500000000 = A.D. 2000-Dec-16 00:00:00.0000 TDB 
   2.522756508146699E-05 -1.582898589910760E-05 -1.846389947584077E-06
   4.209177790365615E-06  6.170198375566498E-06 -5.270400785069365E-07
2451899.500000000 = A.D. 2000-Dec-21 00:00:00.0000 TDB 
   2.555416540125563E-05  1.842636458238437E-05 -2.727441633564883E-06
  -3.860749061143126E-06  5.929862794910897E-06  1.958801838596583E-07
2451904.500000000 = A.D. 2000-Dec-26 00:00:00.0000 TDB 
  -4.295256283597071E-06  3.250444864110333E-05 -4.185959685855388E-07
  -6.799542738262283E-06 -7.468642542560422E-07  6.249374091498272E-07
2451909.500000000 = A.D. 2000-Dec-31 00:00:00.0000 TDB 
  -3.002538907683551E-05  1.293635520807291E-05  2.363916711798594E-06
  -2.493051013247321E-06 -6.330805219813565E-06  3.799069383164651E-07
